STARLINK-4472           
1 53661U 22105P   26068.62485236  .00000528  00000+0  45629-4 0  9993
2 53661  97.6032 310.1441 0000618 101.6515 258.4778 15.01262358193229
HAWK-9C                 
1 59448U 24066G   26067.56477702  .00003036  00000+0  26713-3 0  9990
2 59448  45.5963  76.3952 0003436 229.7565 130.3016 14.98771048104736
